{"type": "FeatureCollection", "features": [ {"type": "Feature", "properties": {"norad_id": 33841, "name": "COSMOS 2251 DEB", "group": "cosmos-2251-debris", "lat": -71.62758906119174, "lon": -140.01613445586992, "alt_km": 770.1632515158935, "timestamp": "2025-12-11T22:43:47.663358+00:00", "meta": {"OBJECT_NAME": "COSMOS 2251 DEB", "OBJECT_ID": "1993-036CJ", "EPOCH": "2025-12-11T13:55:02.752608", "MEAN_MOTION": 14.37858196, "ECCENTRICITY": 0.00204835, "INCLINATION": 74.0378, "RA_OF_ASC_NODE": 280.1772, "ARG_OF_PERICENTER": 0.8144, "MEAN_ANOMALY": 178.7397, "EPHEMERIS_TYPE": 0, "CLASSIFICATION_TYPE": "U", "NORAD_CAT_ID": 33841, "ELEMENT_SET_NO": 999, "REV_AT_EPOCH": 88097, "BSTAR": 0.00039712087, "MEAN_MOTION_DOT": 1.174e-05, "MEAN_MOTION_DDOT": 0}, "tle": {"line1": "1 33841U 93036CJ  25345.57989297  .00001174  00000+0  39712-3 0  9992", "line2": "2 33841  74.0378 280.1772 0020483   0.8144 178.7397 14.37858196880977"}}, "geometry": {"type": "Point", "coordinates": [-140.01613445586992, -71.62758906119174]}}, {"type": "Feature", "properties": {"norad_id": 33842, "name": "COSMOS 2251 DEB", "group": "cosmos-2251-debris", "lat": 18.826587807615574, "lon": 35.5215305498414, "alt_km": 782.46938107591, "timestamp": "2025-12-11T22:43:47.663369+00:00", "meta": {"OBJECT_NAME": "COSMOS 2251 DEB", "OBJECT_ID": "1993-036CK", "EPOCH": "2025-12-11T08:40:26.048640", "MEAN_MOTION": 14.42693916, "ECCENTRICITY": 0.00472524, "INCLINATION": 74.033, "RA_OF_ASC_NODE": 222.2101, "ARG_OF_PERICENTER": 329.8237, "MEAN_ANOMALY": 30.0199, "EPHEMERIS_TYPE": 0, "CLASSIFICATION_TYPE": "U", "NORAD_CAT_ID": 33842, "ELEMENT_SET_NO": 999, "REV_AT_EPOCH": 88317, "BSTAR": 0.00047730252, "MEAN_MOTION_DOT": 1.583e-05, "MEAN_MOTION_DDOT": 0}, "tle": {"line1": "1 33842U 93036CK  25345.36141260  .00001583  00000+0  47730-3 0  9993", "line2": "2 33842  74.0330 222.2101 0047252 329.8237  30.0199 14.42693916883177"}}, "geometry": {"type": "Point", "coordinates": [35.5215305498414, 18.826587807615574]}}, {"type": "Feature", "properties": {"norad_id": 33844, "name": "COSMOS 2251 DEB", "group": "cosmos-2251-debris", "lat": 58.98363200473729, "lon": -154.14020651010895, "alt_km": 747.5775524402816, "timestamp": "2025-12-11T22:43:47.663380+00:00", "meta": {"OBJECT_NAME": "COSMOS 2251 DEB", "OBJECT_ID": "1993-036CM", "EPOCH": "2025-12-11T09:10:51.940704", "MEAN_MOTION": 14.33712468, "ECCENTRICITY": 0.0047066, "INCLINATION": 74.0672, "RA_OF_ASC_NODE": 55.2566, "ARG_OF_PERICENTER": 77.6408, "MEAN_ANOMALY": 6.3303, "EPHEMERIS_TYPE": 0, "CLASSIFICATION_TYPE": "U", "NORAD_CAT_ID": 33844, "ELEMENT_SET_NO": 999, "REV_AT_EPOCH": 87706, "BSTAR": 0.00060281917, "MEAN_MOTION_DOT": 1.669e-05, "MEAN_MOTION_DDOT": 0}, "tle": {"line1": "1 33844U 93036CM  25345.38254561  .00001669  00000+0  60282-3 0  9998", "line2": "2 33844  74.0672  55.2566 0047066  77.6408   6.3303 14.33712468877066"}}, "geometry": {"type": "Point", "coordinates": [-154.14020651010895, 58.98363200473729]}}, {"type": "Feature", "properties": {"norad_id": 33848, "name": "COSMOS 2251 DEB", "group": "cosmos-2251-debris", "lat": -73.56489422645232, "lon": -104.80277603888689, "alt_km": 777.1865257848413, "timestamp": "2025-12-11T22:43:47.663390+00:00", "meta": {"OBJECT_NAME": "COSMOS 2251 DEB", "OBJECT_ID": "1993-036CR", "EPOCH": "2025-12-11T12:13:43.978656", "MEAN_MOTION": 14.44049377, "ECCENTRICITY": 0.00410684, "INCLINATION": 74.0325, "RA_OF_ASC_NODE": 359.9317, "ARG_OF_PERICENTER": 56.186, "MEAN_ANOMALY": 96.4618, "EPHEMERIS_TYPE": 0, "CLASSIFICATION_TYPE": "U", "NORAD_CAT_ID": 33848, "ELEMENT_SET_NO": 999, "REV_AT_EPOCH": 87813, "BSTAR": 0.0017662736, "MEAN_MOTION_DOT": 6.084e-05, "MEAN_MOTION_DDOT": 0}, "tle": {"line1": "1 33848U 93036CR  25345.50953679  .00006084  00000+0  17663-2 0  9992", "line2": "2 33848  74.0325 359.9317 0041068  56.1860  96.4618 14.44049377878135"}}, "geometry": {"type": "Point", "coordinates": [-104.80277603888689, -73.56489422645232]}}, {"type": "Feature", "properties": {"norad_id": 33892, "name": "COSMOS 2251 DEB", "group": "cosmos-2251-debris", "lat": -65.14414933557757, "lon": -37.63481511161344, "alt_km": 855.7707957063194, "timestamp": "2025-12-11T22:43:47.663401+00:00", "meta": {"OBJECT_NAME": "COSMOS 2251 DEB", "OBJECT_ID": "1993-036CV", "EPOCH": "2025-12-11T14:53:25.445760", "MEAN_MOTION": 14.23331836, "ECCENTRICITY": 0.01129386, "INCLINATION": 73.8028, "RA_OF_ASC_NODE": 104.0995, "ARG_OF_PERICENTER": 135.549, "MEAN_ANOMALY": 241.0572, "EPHEMERIS_TYPE": 0, "CLASSIFICATION_TYPE": "U", "NORAD_CAT_ID": 33892, "ELEMENT_SET_NO": 999, "REV_AT_EPOCH": 86939, "BSTAR": 0.0013605488, "MEAN_MOTION_DOT": 3.268e-05, "MEAN_MOTION_DDOT": 0}, "tle": {"line1": "1 33892U 93036CV  25345.62043340  .00003268  00000+0  13605-2 0  9992", "line2": "2 33892  73.8028 104.0995 0112938 135.5490 241.0572 14.23331836869394"}}, "geometry": {"type": "Point", "coordinates": [-37.63481511161344, -65.14414933557757]}}, {"type": "Feature", "properties": {"norad_id": 33894, "name": "COSMOS 2251 DEB", "group": "cosmos-2251-debris", "lat": 73.68441129947526, "lon": 85.93670290863808, "alt_km": 1610.1658311273304, "timestamp": "2025-12-11T22:43:47.663412+00:00", "meta": {"OBJECT_NAME": "COSMOS 2251 DEB", "OBJECT_ID": "1993-036CX", "EPOCH": "2025-12-11T11:19:53.200128", "MEAN_MOTION": 13.21297992, "ECCENTRICITY": 0.05795428, "INCLINATION": 73.7679, "RA_OF_ASC_NODE": 351.0416, "ARG_OF_PERICENTER": 270.6145, "MEAN_ANOMALY": 82.8606, "EPHEMERIS_TYPE": 0, "CLASSIFICATION_TYPE": "U", "NORAD_CAT_ID": 33894, "ELEMENT_SET_NO": 999, "REV_AT_EPOCH": 80691, "BSTAR": 0.0029653097, "MEAN_MOTION_DOT": 2.932e-05, "MEAN_MOTION_DDOT": 0}, "tle": {"line1": "1 33894U 93036CX  25345.47214352  .00002932  00000+0  29653-2 0  9997", "line2": "2 33894  73.7679 351.0416 0579542 270.6145  82.8606 13.21297992806914"}}, "geometry": {"type": "Point", "coordinates": [85.93670290863808, 73.68441129947526]}}, {"type": "Feature", "properties": {"norad_id": 33896, "name": "COSMOS 2251 DEB", "group": "cosmos-2251-debris", "lat": -27.879869732141664, "lon": 149.25589187601733, "alt_km": 743.0616240182435, "timestamp": "2025-12-11T22:43:47.663422+00:00", "meta": {"OBJECT_NAME": "COSMOS 2251 DEB", "OBJECT_ID": "1993-036CZ", "EPOCH": "2025-12-11T11:09:01.896192", "MEAN_MOTION": 14.1903378, "ECCENTRICITY": 0.01263674, "INCLINATION": 73.7663, "RA_OF_ASC_NODE": 158.9979, "ARG_OF_PERICENTER": 334.9174, "MEAN_ANOMALY": 52.3398, "EPHEMERIS_TYPE": 0, "CLASSIFICATION_TYPE": "U", "NORAD_CAT_ID": 33896, "ELEMENT_SET_NO": 999, "REV_AT_EPOCH": 86722, "BSTAR": 0.0010630978, "MEAN_MOTION_DOT": 2.377e-05, "MEAN_MOTION_DDOT": 0}, "tle": {"line1": "1 33896U 93036CZ  25345.46460528  .00002377  00000+0  10631-2 0  9995", "line2": "2 33896  73.7663 158.9979 0126367 334.9174  52.3398 14.19033780867228"}}, "geometry": {"type": "Point", "coordinates": [149.25589187601733, -27.879869732141664]}}, {"type": "Feature", "properties": {"norad_id": 33899, "name": "COSMOS 2251 DEB", "group": "cosmos-2251-debris", "lat": -48.576860759756485, "lon": -73.8522800054054, "alt_km": 689.3250884033796, "timestamp": "2025-12-11T22:43:47.663433+00:00", "meta": {"OBJECT_NAME": "COSMOS 2251 DEB", "OBJECT_ID": "1993-036DC", "EPOCH": "2025-12-11T13:33:23.566176", "MEAN_MOTION": 14.61171487, "ECCENTRICITY": 0.00568446, "INCLINATION": 74.0537, "RA_OF_ASC_NODE": 87.9694, "ARG_OF_PERICENTER": 151.0643, "MEAN_ANOMALY": 229.7112, "EPHEMERIS_TYPE": 0, "CLASSIFICATION_TYPE": "U", "NORAD_CAT_ID": 33899, "ELEMENT_SET_NO": 999, "REV_AT_EPOCH": 88822, "BSTAR": 0.0016865513, "MEAN_MOTION_DOT": 8.476e-05, "MEAN_MOTION_DDOT": 0}, "tle": {"line1": "1 33899U 93036DC  25345.56485609  .00008476  00000+0  16866-2 0  9998", "line2": "2 33899  74.0537  87.9694 0056844 151.0643 229.7112 14.61171487888222"}}, "geometry": {"type": "Point", "coordinates": [-73.8522800054054, -48.576860759756485]}}, {"type": "Feature", "properties": {"norad_id": 33900, "name": "COSMOS 2251 DEB", "group": "cosmos-2251-debris", "lat": -73.40730589744784, "lon": -72.72069376564731, "alt_km": 722.3500191222947, "timestamp": "2025-12-11T22:43:47.663443+00:00", "meta": {"OBJECT_NAME": "COSMOS 2251 DEB", "OBJECT_ID": "1993-036DD", "EPOCH": "2025-12-11T12:17:44.110176", "MEAN_MOTION": 14.5834109, "ECCENTRICITY": 0.00469111, "INCLINATION": 74.0195, "RA_OF_ASC_NODE": 2.2017, "ARG_OF_PERICENTER": 154.6721, "MEAN_ANOMALY": 357.7779, "EPHEMERIS_TYPE": 0, "CLASSIFICATION_TYPE": "U", "NORAD_CAT_ID": 33900, "ELEMENT_SET_NO": 999, "REV_AT_EPOCH": 89018, "BSTAR": 0.0006561651, "MEAN_MOTION_DOT": 3.055e-05, "MEAN_MOTION_DDOT": 0}, "tle": {"line1": "1 33900U 93036DD  25345.51231609  .00003055  00000+0  65617-3 0  9992", "line2": "2 33900  74.0195   2.2017 0046911 154.6721 357.7779 14.58341090890188"}}, "geometry": {"type": "Point", "coordinates": [-72.72069376564731, -73.40730589744784]}}, {"type": "Feature", "properties": {"norad_id": 33901, "name": "COSMOS 2251 DEB", "group": "cosmos-2251-debris", "lat": 73.76290473528238, "lon": 141.04448296408685, "alt_km": 512.0170187752201, "timestamp": "2025-12-11T22:43:47.663454+00:00", "meta": {"OBJECT_NAME": "COSMOS 2251 DEB", "OBJECT_ID": "1993-036DE", "EPOCH": "2025-12-11T06:29:32.083872", "MEAN_MOTION": 15.15676809, "ECCENTRICITY": 0.0032195, "INCLINATION": 73.7736, "RA_OF_ASC_NODE": 52.4052, "ARG_OF_PERICENTER": 184.3689, "MEAN_ANOMALY": 175.7229, "EPHEMERIS_TYPE": 0, "CLASSIFICATION_TYPE": "U", "NORAD_CAT_ID": 33901, "ELEMENT_SET_NO": 999, "REV_AT_EPOCH": 89491, "BSTAR": 0.0063789718, "MEAN_MOTION_DOT": 0.00125087, "MEAN_MOTION_DDOT": 0}, "tle": {"line1": "1 33901U 93036DE  25345.27051023  .00125087  00000+0  63790-2 0  9995", "line2": "2 33901  73.7736  52.4052 0032195 184.3689 175.7229 15.15676809894910"}}, "geometry": {"type": "Point", "coordinates": [141.04448296408685, 73.76290473528238]}}]}